*******************************************************************************
Ephemeris / WWW_USER Tue Mar 27 20:40:20 2018 Pasadena, USA      / Horizons    
*******************************************************************************
Target body name: Uranus Barycenter (7)           {source: DE431mx}
Center body name: Solar System Barycenter (0)     {source: DE431mx}
Center-site name: BODY CENTER
*******************************************************************************
Start time      : A.D. 2000-Jan-01 00:00:00.0000 TDB
Stop  time      : A.D. 2001-Jan-01 00:00:00.0000 TDB
Step-size       : 7200 minutes
*******************************************************************************
Center geodetic : 0.00000000,0.00000000,0.0000000 {E-lon(deg),Lat(deg),Alt(km)}
Center cylindric: 0.00000000,0.00000000,0.0000000 {E-lon(deg),Dxy(km),Dz(km)}
Center radii    : (undefined)                                                  
Output units    : AU-D                                                         
Output type     : GEOMETRIC cartesian states
Output format   : 2 (position and velocity)
Reference frame : ICRF/J2000.0                                                 
Coordinate systm: Ecliptic and Mean Equinox of Reference Epoch                 
*******************************************************************************
JDTDB
   X     Y     Z
   VX    VY    VZ
*******************************************************************************
$$SOE
2451544.500000000 = A.D. 2000-Jan-01 00:00:00.0000 TDB 
   1.442337837469543E+01 -1.373845031068660E+01 -2.379222848768561E-01
   2.683754158779606E-03  2.665031571914651E-03 -2.487069918114993E-05
2451549.500000000 = A.D. 2000-Jan-06 00:00:00.0000 TDB 
   1.443679038936835E+01 -1.372511872280892E+01 -2.380465268930279E-01
   2.681051326671120E-03  2.667603128438915E-03 -2.482610398206441E-05
2451554.500000000 = A.D. 2000-Jan-11 00:00:00.0000 TDB 
   1.445018888412710E+01 -1.371177428391076E+01 -2.381705458836558E-01
   2.678346193536847E-03  2.670171979832816E-03 -2.478148897013391E-05
2451559.500000000 = A.D. 2000-Jan-16 00:00:00.0000 TDB 
   1.446357384747296E+01 -1.369841700752186E+01 -2.382943417497740E-01
   2.675638761947395E-03  2.672738124465510E-03 -2.473685418530374E-05
2451564.500000000 = A.D. 2000-Jan-21 00:00:00.0000 TDB 
   1.447694526792010E+01 -1.368504690718009E+01 -2.384179143926207E-01
   2.672929034474594E-03  2.675301560708344E-03 -2.469219966751908E-05
2451569.500000000 = A.D. 2000-Jan-26 00:00:00.0000 TDB 
   1.449030313399553E+01 -1.367166399643147E+01 -2.385412637136277E-01
   2.670217013691433E-03  2.677862286934867E-03 -2.464752545673265E-05
2451574.500000000 = A.D. 2000-Jan-31 00:00:00.0000 TDB 
   1.450364743423912E+01 -1.365826828883014E+01 -2.386643896144332E-01
   2.667502702172070E-03  2.680420301520533E-03 -2.460283159296786E-05
2451579.500000000 = A.D. 2000-Feb-05 00:00:00.0000 TDB 
   1.451697815720365E+01 -1.364485979793837E+01 -2.387872919968689E-01
   2.664786102492248E-03  2.682975602843310E-03 -2.455811811627209E-05
2451584.500000000 = A.D. 2000-Feb-10 00:00:00.0000 TDB 
   1.453029529145474E+01 -1.363143853732652E+01 -2.389099707629740E-01
   2.662067217228993E-03  2.685528189283565E-03 -2.451338506675582E-05
2451589.500000000 = A.D. 2000-Feb-15 00:00:00.0000 TDB 
   1.454359882557093E+01 -1.361800452057304E+01 -2.390324258149817E-01
   2.659346048961013E-03  2.688078059223650E-03 -2.446863248456273E-05
2451594.500000000 = A.D. 2000-Feb-20 00:00:00.0000 TDB 
   1.455688874814364E+01 -1.360455776126447E+01 -2.391546570553321E-01
   2.656622600268699E-03  2.690625211047896E-03 -2.442386040986820E-05
2451599.500000000 = A.D. 2000-Feb-25 00:00:00.0000 TDB 
   1.457016504777721E+01 -1.359109827299544E+01 -2.392766643866609E-01
   2.653896873734130E-03  2.693169643142622E-03 -2.437906888288156E-05
2451604.500000000 = A.D. 2000-Mar-01 00:00:00.0000 TDB 
   1.458342771308889E+01 -1.357762606936862E+01 -2.393984477118064E-01
   2.651168871941498E-03  2.695711353895752E-03 -2.433425794379884E-05
2451609.500000000 = A.D. 2000-Mar-06 00:00:00.0000 TDB 
   1.459667673270884E+01 -1.356414116399474E+01 -2.395200069338116E-01
   2.648438597476712E-03  2.698250341696355E-03 -2.428942763267947E-05
2451614.500000000 = A.D. 2000-Mar-11 00:00:00.0000 TDB 
   1.460991209528018E+01 -1.355064357049259E+01 -2.396413419559149E-01
   2.645706052926888E-03  2.700786604935114E-03 -2.424457798969394E-05
2451619.500000000 = A.D. 2000-Mar-16 00:00:00.0000 TDB 
   1.462313378945895E+01 -1.353713330248900E+01 -2.397624526815553E-01
   2.642971240880386E-03  2.703320142004360E-03 -2.419970905505905E-05
2451624.500000000 = A.D. 2000-Mar-21 00:00:00.0000 TDB 
   1.463634180391414E+01 -1.352361037361884E+01 -2.398833390143792E-01
   2.640234163926777E-03  2.705850951298079E-03 -2.415482086902209E-05
2451629.500000000 = A.D. 2000-Mar-26 00:00:00.0000 TDB 
   1.464953612732769E+01 -1.351007479752499E+01 -2.400040008582273E-01
   2.637494824656833E-03  2.708379031211925E-03 -2.410991347186590E-05
2451634.500000000 = A.D. 2000-Mar-31 00:00:00.0000 TDB 
   1.466271674839450E+01 -1.349652658785836E+01 -2.401244381171474E-01
   2.634753225662496E-03  2.710904380143146E-03 -2.406498690380535E-05
2451639.500000000 = A.D. 2000-Apr-05 00:00:00.0000 TDB 
   1.467588365582242E+01 -1.348296575827786E+01 -2.402446506953811E-01
   2.632009369536380E-03  2.713426996490755E-03 -2.402004120478047E-05
2451644.500000000 = A.D. 2000-Apr-10 00:00:00.0000 TDB 
   1.468903683833230E+01 -1.346939232245042E+01 -2.403646384973771E-01
   2.629263258871921E-03  2.715946878655638E-03 -2.397507641505795E-05
2451649.500000000 = A.D. 2000-Apr-15 00:00:00.0000 TDB 
   1.470217628465790E+01 -1.345580629405094E+01 -2.404844014277803E-01
   2.626514896263345E-03  2.718464025040747E-03 -2.393009257486214E-05
2451654.500000000 = A.D. 2000-Apr-20 00:00:00.0000 TDB 
   1.471530198354601E+01 -1.344220768676231E+01 -2.406039393914417E-01
   2.623764284305620E-03  2.720978434051270E-03 -2.388508972439545E-05
2451659.500000000 = A.D. 2000-Apr-25 00:00:00.0000 TDB 
   1.472841392375637E+01 -1.342859651427537E+01 -2.407232522934077E-01
   2.621011425594451E-03  2.723490104094635E-03 -2.384006790383878E-05
2451664.500000000 = A.D. 2000-Apr-30 00:00:00.0000 TDB 
   1.474151209406170E+01 -1.341497279028895E+01 -2.408423400389303E-01
   2.618256322726281E-03  2.725999033580509E-03 -2.379502715334927E-05
2451669.500000000 = A.D. 2000-May-05 00:00:00.0000 TDB 
   1.475459648324770E+01 -1.340133652850981E+01 -2.409612025334590E-01
   2.615498978297920E-03  2.728505220921205E-03 -2.374996751322348E-05
2451674.500000000 = A.D. 2000-May-10 00:00:00.0000 TDB 
   1.476766708011307E+01 -1.338768774265263E+01 -2.410798396826468E-01
   2.612739394906911E-03  2.731008664531788E-03 -2.370488902379901E-05
2451679.500000000 = A.D. 2000-May-15 00:00:00.0000 TDB 
   1.478072387346950E+01 -1.337402644644001E+01 -2.411982513923495E-01
   2.609977575152359E-03  2.733509362830286E-03 -2.365979172537573E-05
2451684.500000000 = A.D. 2000-May-20 00:00:00.0000 TDB 
   1.479376685214166E+01 -1.336035265360248E+01 -2.413164375686200E-01
   2.607213521635067E-03  2.736007314236873E-03 -2.361467565828356E-05
2451689.500000000 = A.D. 2000-May-25 00:00:00.0000 TDB 
   1.480679600496725E+01 -1.334666637787843E+01 -2.414343981177174E-01
   2.604447236957539E-03  2.738502517173873E-03 -2.356954086288161E-05
2451694.500000000 = A.D. 2000-May-30 00:00:00.0000 TDB 
   1.481981132079697E+01 -1.333296763301414E+01 -2.415521329461019E-01
   2.601678723723975E-03  2.740994970065756E-03 -2.352438737956097E-05
2451699.500000000 = A.D. 2000-Jun-04 00:00:00.0000 TDB 
   1.483281278849458E+01 -1.331925643276380E+01 -2.416696419604342E-01
   2.598907984539945E-03  2.743484671339038E-03 -2.347921524869128E-05
2451704.500000000 = A.D. 2000-Jun-09 00:00:00.0000 TDB 
   1.484580039693681E+01 -1.330553279088941E+01 -2.417869250675767E-01
   2.596135022013406E-03  2.745971619421969E-03 -2.343402451071567E-05
2451709.500000000 = A.D. 2000-Jun-14 00:00:00.0000 TDB 
   1.485877413501349E+01 -1.329179672116085E+01 -2.419039821745967E-01
   2.593359838754001E-03  2.748455812744701E-03 -2.338881520613525E-05
2451714.500000000 = A.D. 2000-Jun-19 00:00:00.0000 TDB 
   1.487173399162748E+01 -1.327804823735584E+01 -2.420208131887607E-01
   2.590582437373065E-03  2.750937249738804E-03 -2.334358737541701E-05
2451719.500000000 = A.D. 2000-Jun-24 00:00:00.0000 TDB 
   1.488467995569470E+01 -1.326428735325995E+01 -2.421374180175422E-01
   2.587802820483925E-03  2.753415928837224E-03 -2.329834105901766E-05
2451724.500000000 = A.D. 2000-Jun-29 00:00:00.0000 TDB 
   1.489761201614416E+01 -1.325051408266657E+01 -2.422537965686094E-01
   2.585020990701905E-03  2.755891848474282E-03 -2.325307629738496E-05
2451729.500000000 = A.D. 2000-Jul-04 00:00:00.0000 TDB 
   1.491053016191793E+01 -1.323672843937692E+01 -2.423699487498414E-01
   2.582236950644358E-03  2.758365007085603E-03 -2.320779313098167E-05
2451734.500000000 = A.D. 2000-Jul-09 00:00:00.0000 TDB 
   1.492343438197118E+01 -1.322293043720003E+01 -2.424858744693127E-01
   2.579450702930248E-03  2.760835403107925E-03 -2.316249160049240E-05
2451739.500000000 = A.D. 2000-Jul-14 00:00:00.0000 TDB 
   1.493632466527217E+01 -1.320912008995276E+01 -2.426015736353066E-01
   2.576662250180189E-03  2.763303034978902E-03 -2.311717174637516E-05
2451744.500000000 = A.D. 2000-Jul-19 00:00:00.0000 TDB 
   1.494920100080229E+01 -1.319529741145976E+01 -2.427170461563047E-01
   2.573871595016277E-03  2.765767901136928E-03 -2.307183360910834E-05
2451749.500000000 = A.D. 2000-Jul-24 00:00:00.0000 TDB 
   1.496206337755602E+01 -1.318146241555351E+01 -2.428322919409927E-01
   2.571078740061496E-03  2.768230000021704E-03 -2.302647722919934E-05
